STARLINK-34433          
1 64448U 25130L   25317.13499686  .00012570  00000+0  43581-3 0  9999
2 64448  53.1614 270.2332 0001253 102.5817 257.5324 15.30198980 22851
STARLINK-34459          
1 64449U 25130M   25317.11495673  .00060144  00000+0  20300-2 0  9993
2 64449  53.1599 270.1081 0001064  66.4244 293.6868 15.30141670 22854
STARLINK-34361          
1 64450U 25130N   25317.24031183  .00052060  00000+0  17604-2 0  9992
2 64450  53.1587 269.4691 0001187  47.2496 312.8604 15.30146924 24045
STARLINK-34392          
1 64451U 25130P   25317.19821582  .00088970  00000+0  29884-2 0  9999
2 64451  53.1612 269.9150 0004037  32.8207 327.3044 15.30106701 22863
STARLINK-34367          
1 64452U 25130Q   25317.15492881  .00049930  00000+0  16865-2 0  9990
2 64452  53.1600 269.6484 0001777  23.5852 336.5230 15.30201865 22854
STARLINK-34221          
1 64453U 25130R   25317.24347603  .00073348  00000+0  24759-2 0  9993
2 64453  53.1589 269.4899 0001244  80.7969 279.3173 15.30047157 22876
STARLINK-34282          
1 64454U 25130S   25317.13869559  .00047362  00000+0  16038-2 0  9999
2 64454  53.1609 272.3880 0001580  56.3949 303.7202 15.30144984 22829
STARLINK-34295          
1 64455U 25130T   25317.25506829  .00028031  00000+0  95631-3 0  9990
2 64455  53.1610 269.5590 0001680  76.5320 283.5868 15.30154193 22877
STARLINK-34430          
1 64456U 25130U   25317.14756456  .00047307  00000+0  16039-2 0  9993
2 64456  53.1596 269.5987 0001479  58.8760 301.2386 15.30106205 22861
STARLINK-34445          
1 64457U 25130V   25317.17710204 -.00007200  00000+0 -23188-3 0  9992
2 64457  53.1595 269.7837 0001269 107.3922 252.7218 15.30105124 22867
STARLINK-34439          
1 64458U 25130W   25317.15178052  .00025355  00000+0  86689-3 0  9994
2 64458  53.1597 269.6243 0001219  63.5914 296.5212 15.30138911 22869
STARLINK-34421          
1 64459U 25130X   25317.24665208  .00041208  00000+0  13989-2 0  9996
2 64459  53.1593 269.5041 0001162 108.7845 251.3282 15.30128032 22873
STARLINK-34423          
1 64460U 25130Y   25317.14543873  .00053416  00000+0  18064-2 0  9993
2 64460  53.1610 269.5817 0001327 131.9957 228.1157 15.30133429 22869
STARLINK-34418          
1 64461U 25130Z   25317.25613035  .00049238  00000+0  16661-2 0  9992
2 64461  53.1613 269.5620 0001675  71.5641 288.5542 15.30150611 22871
STARLINK-34336          
1 64462U 25130AA  25317.15135815  .00053680  00000+0  18159-2 0  9997
2 64462  53.1600 272.3929 0001303  60.1820 299.9311 15.30121056 22829
STARLINK-34400          
1 64463U 25130AB  25317.14502438  .00056009  00000+0  18915-2 0  9994
2 64463  53.1608 272.4222 0001610  59.8200 300.2960 15.30157187 22823
