[{"OBJECT_NAME":"STARLINK-34433","OBJECT_ID":"2025-130L","EPOCH":"2025-11-13T03:14:23.728704","MEAN_MOTION":15.3019898,"ECCENTRICITY":0.00012535,"INCLINATION":53.1614,"RA_OF_ASC_NODE":270.2332,"ARG_OF_PERICENTER":102.5817,"MEAN_ANOMALY":257.5324,"EPHEMERIS_TYPE":0,"CLASSIFICATION_TYPE":"U","NORAD_CAT_ID":64448,"ELEMENT_SET_NO":999,"REV_AT_EPOCH":2285,"BSTAR":0.00043580977,"MEAN_MOTION_DOT":0.0001257,"MEAN_MOTION_DDOT":0},{"OBJECT_NAME":"STARLINK-34459","OBJECT_ID":"2025-130M","EPOCH":"2025-11-13T02:45:32.261472","MEAN_MOTION":15.3014167,"ECCENTRICITY":0.00010643,"INCLINATION":53.1599,"RA_OF_ASC_NODE":270.1081,"ARG_OF_PERICENTER":66.4244,"MEAN_ANOMALY":293.6868,"EPHEMERIS_TYPE":0,"CLASSIFICATION_TYPE":"U","NORAD_CAT_ID":64449,"ELEMENT_SET_NO":999,"REV_AT_EPOCH":2285,"BSTAR":0.0020300453,"MEAN_MOTION_DOT":0.00060144,"MEAN_MOTION_DDOT":0},{"OBJECT_NAME":"STARLINK-34361","OBJECT_ID":"2025-130N","EPOCH":"2025-11-13T05:46:02.942112","MEAN_MOTION":15.30146924,"ECCENTRICITY":0.00011878,"INCLINATION":53.1587,"RA_OF_ASC_NODE":269.4691,"ARG_OF_PERICENTER":47.2496,"MEAN_ANOMALY":312.8604,"EPHEMERIS_TYPE":0,"CLASSIFICATION_TYPE":"U","NORAD_CAT_ID":64450,"ELEMENT_SET_NO":999,"REV_AT_EPOCH":2404,"BSTAR":0.0017604402,"MEAN_MOTION_DOT":0.0005206,"MEAN_MOTION_DDOT":0},{"OBJECT_NAME":"STARLINK-34392","OBJECT_ID":"2025-130P","EPOCH":"2025-11-13T04:45:25.846848","MEAN_MOTION":15.30106701,"ECCENTRICITY":0.00040379,"INCLINATION":53.1612,"RA_OF_ASC_NODE":269.915,"ARG_OF_PERICENTER":32.8207,"MEAN_ANOMALY":327.3044,"EPHEMERIS_TYPE":0,"CLASSIFICATION_TYPE":"U","NORAD_CAT_ID":64451,"ELEMENT_SET_NO":999,"REV_AT_EPOCH":2286,"BSTAR":0.0029884318,"MEAN_MOTION_DOT":0.0008897,"MEAN_MOTION_DDOT":0},{"OBJECT_NAME":"STARLINK-34367","OBJECT_ID":"2025-130Q","EPOCH":"2025-11-13T03:43:05.849184","MEAN_MOTION":15.30201865,"ECCENTRICITY":0.0001777,"INCLINATION":53.16,"RA_OF_ASC_NODE":269.6484,"ARG_OF_PERICENTER":23.5852,"MEAN_ANOMALY":336.523,"EPHEMERIS_TYPE":0,"CLASSIFICATION_TYPE":"U","NORAD_CAT_ID":64452,"ELEMENT_SET_NO":999,"REV_AT_EPOCH":2285,"BSTAR":0.0016865114,"MEAN_MOTION_DOT":0.0004993,"MEAN_MOTION_DDOT":0},{"OBJECT_NAME":"STARLINK-34221","OBJECT_ID":"2025-130R","EPOCH":"2025-11-13T05:50:36.328992","MEAN_MOTION":15.30047157,"ECCENTRICITY":0.00012445,"INCLINATION":53.1589,"RA_OF_ASC_NODE":269.4899,"ARG_OF_PERICENTER":80.7969,"MEAN_ANOMALY":279.3173,"EPHEMERIS_TYPE":0,"CLASSIFICATION_TYPE":"U","NORAD_CAT_ID":64453,"ELEMENT_SET_NO":999,"REV_AT_EPOCH":2287,"BSTAR":0.0024759098,"MEAN_MOTION_DOT":0.00073348,"MEAN_MOTION_DDOT":0},{"OBJECT_NAME":"STARLINK-34282","OBJECT_ID":"2025-130S","EPOCH":"2025-11-13T03:19:43.298976","MEAN_MOTION":15.30144984,"ECCENTRICITY":0.00015807,"INCLINATION":53.1609,"RA_OF_ASC_NODE":272.388,"ARG_OF_PERICENTER":56.3949,"MEAN_ANOMALY":303.7202,"EPHEMERIS_TYPE":0,"CLASSIFICATION_TYPE":"U","NORAD_CAT_ID":64454,"ELEMENT_SET_NO":999,"REV_AT_EPOCH":2282,"BSTAR":0.0016037783,"MEAN_MOTION_DOT":0.00047362,"MEAN_MOTION_DDOT":0},{"OBJECT_NAME":"STARLINK-34295","OBJECT_ID":"2025-130T","EPOCH":"2025-11-13T06:07:17.900256","MEAN_MOTION":15.30154193,"ECCENTRICITY":0.00016805,"INCLINATION":53.161,"RA_OF_ASC_NODE":269.559,"ARG_OF_PERICENTER":76.532,"MEAN_ANOMALY":283.5868,"EPHEMERIS_TYPE":0,"CLASSIFICATION_TYPE":"U","NORAD_CAT_ID":64455,"ELEMENT_SET_NO":999,"REV_AT_EPOCH":2287,"BSTAR":0.00095631077,"MEAN_MOTION_DOT":0.00028031,"MEAN_MOTION_DDOT":0},{"OBJECT_NAME":"STARLINK-34430","OBJECT_ID":"2025-130U","EPOCH":"2025-11-13T03:32:29.577984","MEAN_MOTION":15.30106205,"ECCENTRICITY":0.00014797,"INCLINATION":53.1596,"RA_OF_ASC_NODE":269.5987,"ARG_OF_PERICENTER":58.876,"MEAN_ANOMALY":301.2386,"EPHEMERIS_TYPE":0,"CLASSIFICATION_TYPE":"U","NORAD_CAT_ID":64456,"ELEMENT_SET_NO":999,"REV_AT_EPOCH":2286,"BSTAR":0.0016038583,"MEAN_MOTION_DOT":0.00047307,"MEAN_MOTION_DDOT":0},{"OBJECT_NAME":"STARLINK-34445","OBJECT_ID":"2025-130V","EPOCH":"2025-11-13T04:15:01.616256","MEAN_MOTION":15.30105124,"ECCENTRICITY":0.00012692,"INCLINATION":53.1595,"RA_OF_ASC_NODE":269.7837,"ARG_OF_PERICENTER":107.3922,"MEAN_ANOMALY":252.7218,"EPHEMERIS_TYPE":0,"CLASSIFICATION_TYPE":"U","NORAD_CAT_ID":64457,"ELEMENT_SET_NO":999,"REV_AT_EPOCH":2286,"BSTAR":-0.00023187701,"MEAN_MOTION_DOT":-7.2e-5,"MEAN_MOTION_DDOT":0},{"OBJECT_NAME":"STARLINK-34439","OBJECT_ID":"2025-130W","EPOCH":"2025-11-13T03:38:33.836928","MEAN_MOTION":15.30138911,"ECCENTRICITY":0.00012196,"INCLINATION":53.1597,"RA_OF_ASC_NODE":269.6243,"ARG_OF_PERICENTER":63.5914,"MEAN_ANOMALY":296.5212,"EPHEMERIS_TYPE":0,"CLASSIFICATION_TYPE":"U","NORAD_CAT_ID":64458,"ELEMENT_SET_NO":999,"REV_AT_EPOCH":2286,"BSTAR":0.00086688978,"MEAN_MOTION_DOT":0.00025355,"MEAN_MOTION_DDOT":0},{"OBJECT_NAME":"STARLINK-34421","OBJECT_ID":"2025-130X","EPOCH":"2025-11-13T05:55:10.739712","MEAN_MOTION":15.30128032,"ECCENTRICITY":0.00011621,"INCLINATION":53.1593,"RA_OF_ASC_NODE":269.5041,"ARG_OF_PERICENTER":108.7845,"MEAN_ANOMALY":251.3282,"EPHEMERIS_TYPE":0,"CLASSIFICATION_TYPE":"U","NORAD_CAT_ID":64459,"ELEMENT_SET_NO":999,"REV_AT_EPOCH":2287,"BSTAR":0.0013988533,"MEAN_MOTION_DOT":0.00041208,"MEAN_MOTION_DDOT":0},{"OBJECT_NAME":"STARLINK-34423","OBJECT_ID":"2025-130Y","EPOCH":"2025-11-13T03:29:25.906272","MEAN_MOTION":15.30133429,"ECCENTRICITY":0.00013271,"INCLINATION":53.161,"RA_OF_ASC_NODE":269.5817,"ARG_OF_PERICENTER":131.9957,"MEAN_ANOMALY":228.1157,"EPHEMERIS_TYPE":0,"CLASSIFICATION_TYPE":"U","NORAD_CAT_ID":64460,"ELEMENT_SET_NO":999,"REV_AT_EPOCH":2286,"BSTAR":0.0018064186,"MEAN_MOTION_DOT":0.00053416,"MEAN_MOTION_DDOT":0},{"OBJECT_NAME":"STARLINK-34418","OBJECT_ID":"2025-130Z","EPOCH":"2025-11-13T06:08:49.662240","MEAN_MOTION":15.30150611,"ECCENTRICITY":0.00016751,"INCLINATION":53.1613,"RA_OF_ASC_NODE":269.562,"ARG_OF_PERICENTER":71.5641,"MEAN_ANOMALY":288.5542,"EPHEMERIS_TYPE":0,"CLASSIFICATION_TYPE":"U","NORAD_CAT_ID":64461,"ELEMENT_SET_NO":999,"REV_AT_EPOCH":2287,"BSTAR":0.0016661011,"MEAN_MOTION_DOT":0.00049238,"MEAN_MOTION_DDOT":0},{"OBJECT_NAME":"STARLINK-34336","OBJECT_ID":"2025-130AA","EPOCH":"2025-11-13T03:37:57.344160","MEAN_MOTION":15.30121056,"ECCENTRICITY":0.00013039,"INCLINATION":53.16,"RA_OF_ASC_NODE":272.3929,"ARG_OF_PERICENTER":60.182,"MEAN_ANOMALY":299.9311,"EPHEMERIS_TYPE":0,"CLASSIFICATION_TYPE":"U","NORAD_CAT_ID":64462,"ELEMENT_SET_NO":999,"REV_AT_EPOCH":2282,"BSTAR":0.0018159082,"MEAN_MOTION_DOT":0.0005368,"MEAN_MOTION_DDOT":0},{"OBJECT_NAME":"STARLINK-34400","OBJECT_ID":"2025-130AB","EPOCH":"2025-11-13T03:28:50.106432","MEAN_MOTION":15.30157187,"ECCENTRICITY":0.00016107,"INCLINATION":53.1608,"RA_OF_ASC_NODE":272.4222,"ARG_OF_PERICENTER":59.82,"MEAN_ANOMALY":300.296,"EPHEMERIS_TYPE":0,"CLASSIFICATION_TYPE":"U","NORAD_CAT_ID":64463,"ELEMENT_SET_NO":999,"REV_AT_EPOCH":2282,"BSTAR":0.0018914515,"MEAN_MOTION_DOT":0.00056009,"MEAN_MOTION_DDOT":0}]
